[Satellite]
VERSION=1.1
NAME=EXPRESS-AM 1
NICKNAME=EXPRESS-AM 1
TLE1=1 28463U 04043A   11059.96045125  .00000130  00000-0  10000-3 0  9709
TLE2=2 28463   0.7381  77.1558 0003384 294.9340 172.0624  1.00273405 23195
